[{"OBJECT_NAME":"STARLINK-31641","OBJECT_ID":"2024-062A","EPOCH":"2026-03-09T20:02:38.294016","MEAN_MOTION":15.30185555,"ECCENTRICITY":0.00011094,"INCLINATION":53.1599,"RA_OF_ASC_NODE":257.8367,"ARG_OF_PERICENTER":96.0509,"MEAN_ANOMALY":264.0618,"EPHEMERIS_TYPE":0,"CLASSIFICATION_TYPE":"U","NORAD_CAT_ID":59374,"ELEMENT_SET_NO":999,"REV_AT_EPOCH":10964,"BSTAR":-1.980126e-6,"MEAN_MOTION_DOT":-4.18e-6,"MEAN_MOTION_DDOT":0},{"OBJECT_NAME":"NOAA 17 DEB","OBJECT_ID":"2002-032DK","EPOCH":"2026-03-06T06:53:22.349472","MEAN_MOTION":15.29547844,"ECCENTRICITY":0.00135803,"INCLINATION":98.6735,"RA_OF_ASC_NODE":77.6727,"ARG_OF_PERICENTER":131.2945,"MEAN_ANOMALY":228.9463,"EPHEMERIS_TYPE":0,"CLASSIFICATION_TYPE":"U","NORAD_CAT_ID":49481,"ELEMENT_SET_NO":999,"REV_AT_EPOCH":24998,"BSTAR":0.011623019,"MEAN_MOTION_DOT":0.00349096,"MEAN_MOTION_DDOT":0}]
